start=new Date('2022-11-29T00:00:00.000Z').valueOf();
sats=[{"REF_FRAME":"TEME","TLE_LINE2":"2 45783  53.0540 172.0110 0002177  54.7207 305.3985 15.06402179137201","LAUNCH_DATE":"2020-06-13","EPHEMERIS_TYPE":"0","OBJECT_TYPE":"PAYLOAD","BSTAR":"0.00003274100000","OBJECT_ID":"2020-038BF","SEMIMAJOR_AXIS":"6925.342","NORAD_CAT_ID":"45783","TLE_LINE1":"1 45783U 20038BF  22332.27872738  .00000206  00000-0  32741-4 0  9995","REV_AT_EPOCH":"13720","PERIAPSIS":"545.699","INCLINATION":"53.0540","MEAN_MOTION_DOT":"0.00000206","MEAN_ANOMALY":"305.3985","MEAN_ELEMENT_THEORY":"SGP4","CLASSIFICATION_TYPE":"U","ARG_OF_PERICENTER":"54.7207","FILE":"3672300","CENTER_NAME":"EARTH","GP_ID":"219002276","MEAN_MOTION_DDOT":"0.0000000000000","RCS_SIZE":"LARGE","TIME_SYSTEM":"UTC","PERIOD":"95.592","RA_OF_ASC_NODE":"172.0110","APOAPSIS":"548.715","ECCENTRICITY":"0.00021770","EPOCH":"2022-11-28T06:41:22.045632","SITE":"AFETR","COUNTRY_CODE":"US","OBJECT_NAME":"STARLINK-1505","DECAY_DATE":null,"MEAN_MOTION":"15.06402179","ELEMENT_SET_NO":"999"},{"SEMIMAJOR_AXIS":"6925.342","BSTAR":"0.00004060100000","OBJECT_ID":"2020-038BG","PERIAPSIS":"545.878","INCLINATION":"53.0545","REV_AT_EPOCH":"13711","NORAD_CAT_ID":"45784","TLE_LINE1":"1 45784U 20038BG  22331.72215474  .00000323  00000-0  40601-4 0  9997","TLE_LINE2":"2 45784  53.0545 174.4990 0001918  62.8314 297.2870 15.06402285137110","REF_FRAME":"TEME","OBJECT_TYPE":"PAYLOAD","LAUNCH_DATE":"2020-06-13","EPHEMERIS_TYPE":"0","MEAN_MOTION_DOT":"0.00000323","MEAN_ELEMENT_THEORY":"SGP4","MEAN_ANOMALY":"297.2870","ARG_OF_PERICENTER":"62.8314","FILE":"3672016","CLASSIFICATION_TYPE":"U","PERIOD":"95.592","TIME_SYSTEM":"UTC","RCS_SIZE":"LARGE","EPOCH":"2022-11-27T17:19:54.169536","SITE":"AFETR","APOAPSIS":"548.535","RA_OF_ASC_NODE":"174.4990","ECCENTRICITY":"0.00019180","GP_ID":"218996482","MEAN_MOTION_DDOT":"0.0000000000000","CENTER_NAME":"EARTH","DECAY_DATE":null,"MEAN_MOTION":"15.06402285","ELEMENT_SET_NO":"999","COUNTRY_CODE":"US","OBJECT_NAME":"STARLINK-1510"},{"MEAN_MOTION":"15.06399769","ELEMENT_SET_NO":"999","DECAY_DATE":null,"OBJECT_NAME":"STARLINK-1512","COUNTRY_CODE":"US","EPOCH":"2022-11-27T20:04:26.358816","SITE":"AFETR","APOAPSIS":"548.499","RA_OF_ASC_NODE":"174.0046","ECCENTRICITY":"0.00018550","PERIOD":"95.592","TIME_SYSTEM":"UTC","RCS_SIZE":"LARGE","MEAN_MOTION_DDOT":"0.0000000000000","GP_ID":"218987159","CENTER_NAME":"EARTH","ARG_OF_PERICENTER":"60.7997","FILE":"3671921","CLASSIFICATION_TYPE":"U","MEAN_MOTION_DOT":"0.00000301","MEAN_ELEMENT_THEORY":"SGP4","MEAN_ANOMALY":"299.3177","PERIAPSIS":"545.930","REV_AT_EPOCH":"13621","INCLINATION":"53.0536","NORAD_CAT_ID":"45785","TLE_LINE1":"1 45785U 20038BH  22331.83641619  .00000301  00000-0  39117-4 0  9990","SEMIMAJOR_AXIS":"6925.349","BSTAR":"0.00003911700000","OBJECT_ID":"2020-038BH","OBJECT_TYPE":"PAYLOAD","LAUNCH_DATE":"2020-06-13","EPHEMERIS_TYPE":"0","TLE_LINE2":"2 45785  53.0536 174.0046 0001855  60.7997 299.3177 15.06399769136218","REF_FRAME":"TEME"},{"MEAN_MOTION_DOT":"0.00000598","MEAN_ELEMENT_THEORY":"SGP4","MEAN_ANOMALY":"292.6205","CLASSIFICATION_TYPE":"U","ARG_OF_PERICENTER":"67.4959","FILE":"3672016","TLE_LINE2":"2 45786  53.0532 173.4559 0001659  67.4959 292.6205 15.06401250137152","REF_FRAME":"TEME","LAUNCH_DATE":"2020-06-13","EPHEMERIS_TYPE":"0","OBJECT_TYPE":"PAYLOAD","BSTAR":"0.00005904000000","OBJECT_ID":"2020-038BJ","SEMIMAJOR_AXIS":"6925.345","NORAD_CAT_ID":"45786","TLE_LINE1":"1 45786U 20038BJ  22331.95436101  .00000598  00000-0  59040-4 0  9997","INCLINATION":"53.0532","PERIAPSIS":"546.061","REV_AT_EPOCH":"13715","COUNTRY_CODE":"US","OBJECT_NAME":"STARLINK-1513","DECAY_DATE":null,"MEAN_MOTION":"15.06401250","ELEMENT_SET_NO":"999","CENTER_NAME":"EARTH","GP_ID":"218996289","MEAN_MOTION_DDOT":"0.0000000000000","RCS_SIZE":"LARGE","TIME_SYSTEM":"UTC","PERIOD":"95.592","APOAPSIS":"548.359","RA_OF_ASC_NODE":"173.4559","ECCENTRICITY":"0.00016590","EPOCH":"2022-11-27T22:54:16.791264","SITE":"AFETR"},{"CLASSIFICATION_TYPE":"U","ARG_OF_PERICENTER":"69.2563","FILE":"3672010","MEAN_MOTION_DOT":"-0.00001026","MEAN_ELEMENT_THEORY":"SGP4","MEAN_ANOMALY":"290.8588","LAUNCH_DATE":"2020-06-13","EPHEMERIS_TYPE":"0","OBJECT_TYPE":"PAYLOAD","TLE_LINE2":"2 45787  53.0535 174.0296 0001506  69.2563 290.8588 15.06386032137135","REF_FRAME":"TEME","NORAD_CAT_ID":"45787","TLE_LINE1":"1 45787U 20038BK  22331.82905009 -.00001026  00000-0 -50029-4 0  9999","PERIAPSIS":"546.213","INCLINATION":"53.0535","REV_AT_EPOCH":"13713","BSTAR":"-0.00005002900000","OBJECT_ID":"2020-038BK","SEMIMAJOR_AXIS":"6925.391","OBJECT_NAME":"STARLINK-1517","COUNTRY_CODE":"US","MEAN_MOTION":"15.06386032","ELEMENT_SET_NO":"999","DECAY_DATE":null,"CENTER_NAME":"EARTH","GP_ID":"218996308","MEAN_MOTION_DDOT":"0.0000000000000","RA_OF_ASC_NODE":"174.0296","APOAPSIS":"548.299","ECCENTRICITY":"0.00015060","EPOCH":"2022-11-27T19:53:49.927776","SITE":"AFETR","RCS_SIZE":"LARGE","PERIOD":"95.593","TIME_SYSTEM":"UTC"},{"MEAN_MOTION_DOT":"-0.00000896","MEAN_ANOMALY":"286.4537","MEAN_ELEMENT_THEORY":"SGP4","ARG_OF_PERICENTER":"73.6612","FILE":"3672017","CLASSIFICATION_TYPE":"U","REF_FRAME":"TEME","TLE_LINE2":"2 46027  53.0567 104.1560 0001454  73.6612 286.4537 15.06396180127827","OBJECT_TYPE":"PAYLOAD","LAUNCH_DATE":"2020-08-07","EPHEMERIS_TYPE":"0","SEMIMAJOR_AXIS":"6925.360","BSTAR":"-0.00004124200000","OBJECT_ID":"2020-055A","INCLINATION":"53.0567","PERIAPSIS":"546.218","REV_AT_EPOCH":"12782","NORAD_CAT_ID":"46027","TLE_LINE1":"1 46027U 20055A   22331.80231902 -.00000896  00000-0 -41242-4 0  9999","COUNTRY_CODE":"US","OBJECT_NAME":"STARLINK-1522","DECAY_DATE":null,"MEAN_MOTION":"15.06396180","ELEMENT_SET_NO":"999","MEAN_MOTION_DDOT":"0.0000000000000","GP_ID":"218996346","CENTER_NAME":"EARTH","PERIOD":"95.592","TIME_SYSTEM":"UTC","RCS_SIZE":"LARGE","EPOCH":"2022-11-27T19:15:20.363328","SITE":"AFETR","RA_OF_ASC_NODE":"104.1560","APOAPSIS":"548.232","ECCENTRICITY":"0.00014540"},{"ELEMENT_SET_NO":"999","MEAN_MOTION":"15.06394460","DECAY_DATE":null,"OBJECT_NAME":"STARLINK-1523","COUNTRY_CODE":"US","SITE":"AFETR","EPOCH":"2022-11-28T13:07:30.493344","ECCENTRICITY":"0.00013970","RA_OF_ASC_NODE":"100.7917","APOAPSIS":"548.198","TIME_SYSTEM":"UTC","PERIOD":"95.592","RCS_SIZE":"LARGE","GP_ID":"219007708","MEAN_MOTION_DDOT":"0.0000000000000","CENTER_NAME":"EARTH","FILE":"3672574","ARG_OF_PERICENTER":"81.4682","CLASSIFICATION_TYPE":"U","MEAN_ANOMALY":"278.6465","MEAN_ELEMENT_THEORY":"SGP4","MEAN_MOTION_DOT":"-0.00000716","INCLINATION":"53.0553","PERIAPSIS":"546.263","REV_AT_EPOCH":"12794","TLE_LINE1":"1 46028U 20055B   22332.54688071 -.00000716  00000-0 -29159-4 0  9999","NORAD_CAT_ID":"46028","SEMIMAJOR_AXIS":"6925.366","OBJECT_ID":"2020-055B","BSTAR":"-0.00002915900000","OBJECT_TYPE":"PAYLOAD","EPHEMERIS_TYPE":"0","LAUNCH_DATE":"2020-08-07","REF_FRAME":"TEME","TLE_LINE2":"2 46028  53.0553 100.7917 0001397  81.4682 278.6465 15.06394460127946"},{"CLASSIFICATION_TYPE":"U","FILE":"3672313","ARG_OF_PERICENTER":"76.2504","MEAN_ANOMALY":"283.8633","MEAN_ELEMENT_THEORY":"SGP4","MEAN_MOTION_DOT":"-0.00000524","EPHEMERIS_TYPE":"0","LAUNCH_DATE":"2020-08-07","OBJECT_TYPE":"PAYLOAD","TLE_LINE2":"2 46029  53.0547 101.7148 0001331  76.2504 283.8633 15.06392845127917","REF_FRAME":"TEME","TLE_LINE1":"1 46029U 20055C   22332.34046922 -.00000524  00000-0 -16297-4 0  9997","NORAD_CAT_ID":"46029","REV_AT_EPOCH":"12791","PERIAPSIS":"546.314","INCLINATION":"53.0547","OBJECT_ID":"2020-055C","BSTAR":"-0.00001629700000","SEMIMAJOR_AXIS":"6925.370","OBJECT_NAME":"STARLINK-1526","COUNTRY_CODE":"US","ELEMENT_SET_NO":"999","MEAN_MOTION":"15.06392845","DECAY_DATE":null,"CENTER_NAME":"EARTH","GP_ID":"219002379","MEAN_MOTION_DDOT":"0.0000000000000","ECCENTRICITY":"0.00013310","APOAPSIS":"548.157","RA_OF_ASC_NODE":"101.7148","SITE":"AFETR","EPOCH":"2022-11-28T08:10:16.540608","RCS_SIZE":"LARGE","TIME_SYSTEM":"UTC","PERIOD":"95.593"},{"ELEMENT_SET_NO":"999","MEAN_MOTION":"15.06376814","DECAY_DATE":null,"OBJECT_NAME":"STARLINK-1534","COUNTRY_CODE":"US","SITE":"AFETR","EPOCH":"2022-11-28T18:10:02.316000","ECCENTRICITY":"0.00013090","RA_OF_ASC_NODE":"99.8677","APOAPSIS":"548.191","PERIOD":"95.594","TIME_SYSTEM":"UTC","RCS_SIZE":"LARGE","MEAN_MOTION_DDOT":"0.0000000000000","GP_ID":"219009555","CENTER_NAME":"EARTH","FILE":"3672661","ARG_OF_PERICENTER":"94.9251","CLASSIFICATION_TYPE":"U","MEAN_ELEMENT_THEORY":"SGP4","MEAN_ANOMALY":"265.1887","MEAN_MOTION_DOT":"-0.00003184","PERIAPSIS":"546.378","REV_AT_EPOCH":"12797","INCLINATION":"53.0549","TLE_LINE1":"1 46030U 20055D   22332.75697125 -.00003184  00000-0 -19508-3 0  9993","NORAD_CAT_ID":"46030","SEMIMAJOR_AXIS":"6925.420","OBJECT_ID":"2020-055D","BSTAR":"-0.00019508000000","OBJECT_TYPE":"PAYLOAD","EPHEMERIS_TYPE":"0","LAUNCH_DATE":"2020-08-07","REF_FRAME":"TEME","TLE_LINE2":"2 46030  53.0549  99.8677 0001309  94.9251 265.1887 15.06376814127974"},{"TLE_LINE2":"2 46031  53.0551 104.6118 0001532  65.8995 294.2154 15.06401051128314","REF_FRAME":"TEME","EPHEMERIS_TYPE":"0","LAUNCH_DATE":"2020-08-07","OBJECT_TYPE":"PAYLOAD","OBJECT_ID":"2020-055E","BSTAR":"0.00001056300000","SEMIMAJOR_AXIS":"6925.345","TLE_LINE1":"1 46031U 20055E   22331.69816349 -.00000124  00000-0  10563-4 0  9990","NORAD_CAT_ID":"46031","PERIAPSIS":"546.149","INCLINATION":"53.0551","REV_AT_EPOCH":"12831","MEAN_ELEMENT_THEORY":"SGP4","MEAN_ANOMALY":"294.2154","MEAN_MOTION_DOT":"-0.00000124","CLASSIFICATION_TYPE":"U","FILE":"3671921","ARG_OF_PERICENTER":"65.8995","CENTER_NAME":"EARTH","MEAN_MOTION_DDOT":"0.0000000000000","GP_ID":"218988433","RCS_SIZE":"LARGE","TIME_SYSTEM":"UTC","PERIOD":"95.592","ECCENTRICITY":"0.00015320","APOAPSIS":"548.271","RA_OF_ASC_NODE":"104.6118","SITE":"AFETR","EPOCH":"2022-11-27T16:45:21.325536","COUNTRY_CODE":"US","OBJECT_NAME":"STARLINK-1544","DECAY_DATE":null,"ELEMENT_SET_NO":"999","MEAN_MOTION":"15.06401051"}];
